IONOSFERA-M 3           
1 64876U 25155A   26063.15470662  .00000100  00000+0  65330-4 0  9998
2 64876  98.5914  27.7708 0001910 126.7060 233.4293 14.21464893 31487
IONOSFERA-M 4           
1 64877U 25155B   26063.18969311  .00000110  00000+0  69854-4 0  9992
2 64877  98.5909  27.7234 0001566 108.9496 251.1851 14.21466605 31488
MICROCARB               
1 64899U 25156A   26063.14608220  .00000949  00000+0  15822-3 0  9997
2 64899  97.9894 142.1437 0015244 245.5577 114.4041 14.72192703 32519
CO3D 3                  
1 64900U 25156B   26063.20029084  .00003210  00000+0  15134-3 0  9992
2 64900  97.4332 143.4004 0001446 157.5302 202.5996 15.20201963 33584
CO3D 4                  
1 64901U 25156C   26061.29158243  .00001237  00000+0  60250-4 0  9997
2 64901  97.4334 141.5187 0000254 280.3117  79.8089 15.20203154 33293
CO3D 2                  
1 64902U 25156D   26063.16709922  .00008307  00000+0  38630-3 0  9993
2 64902  97.4333 143.2665 0001336 134.2524 225.8821 15.20211208 33571
CO3D 1                  
1 64903U 25156E   26063.16725265  .00005737  00000+0  26792-3 0  9992
2 64903  97.4332 143.2664 0001185 140.9688 219.1633 15.20201629 33570
SENTINEL-6B             
1 66514U 25264A   26063.15179418 -.00000054  00000+0  30022-4 0  9994
2 66514  66.0446 353.3391 0008001 270.6931  89.3167 12.80929326 13712
CSG-3                   
1 67304U 26001A   26063.22013856  .00000678  00000+0  91703-4 0  9997
2 67304  97.8862 248.3369 0001353  89.1637 270.9732 14.82166109  8919
