[{"OBJECT_NAME":"IONOSFERA-M 3","OBJECT_ID":"2025-155A","EPOCH":"2026-03-04T03:42:46.651968","MEAN_MOTION":14.21464893,"ECCENTRICITY":0.000191,"INCLINATION":98.5914,"RA_OF_ASC_NODE":27.7708,"ARG_OF_PERICENTER":126.706,"MEAN_ANOMALY":233.4293,"EPHEMERIS_TYPE":0,"CLASSIFICATION_TYPE":"U","NORAD_CAT_ID":64876,"ELEMENT_SET_NO":999,"REV_AT_EPOCH":3148,"BSTAR":6.533e-5,"MEAN_MOTION_DOT":1.0e-6,"MEAN_MOTION_DDOT":0},{"OBJECT_NAME":"IONOSFERA-M 4","OBJECT_ID":"2025-155B","EPOCH":"2026-03-04T04:33:09.484704","MEAN_MOTION":14.21466605,"ECCENTRICITY":0.0001566,"INCLINATION":98.5909,"RA_OF_ASC_NODE":27.7234,"ARG_OF_PERICENTER":108.9496,"MEAN_ANOMALY":251.1851,"EPHEMERIS_TYPE":0,"CLASSIFICATION_TYPE":"U","NORAD_CAT_ID":64877,"ELEMENT_SET_NO":999,"REV_AT_EPOCH":3148,"BSTAR":6.9854e-5,"MEAN_MOTION_DOT":1.1e-6,"MEAN_MOTION_DDOT":0},{"OBJECT_NAME":"MICROCARB","OBJECT_ID":"2025-156A","EPOCH":"2026-03-04T03:30:21.502080","MEAN_MOTION":14.72192703,"ECCENTRICITY":0.0015244,"INCLINATION":97.9894,"RA_OF_ASC_NODE":142.1437,"ARG_OF_PERICENTER":245.5577,"MEAN_ANOMALY":114.4041,"EPHEMERIS_TYPE":0,"CLASSIFICATION_TYPE":"U","NORAD_CAT_ID":64899,"ELEMENT_SET_NO":999,"REV_AT_EPOCH":3251,"BSTAR":0.00015822,"MEAN_MOTION_DOT":9.49e-6,"MEAN_MOTION_DDOT":0},{"OBJECT_NAME":"CO3D 3","OBJECT_ID":"2025-156B","EPOCH":"2026-03-04T04:48:25.128576","MEAN_MOTION":15.20201963,"ECCENTRICITY":0.0001446,"INCLINATION":97.4332,"RA_OF_ASC_NODE":143.4004,"ARG_OF_PERICENTER":157.5302,"MEAN_ANOMALY":202.5996,"EPHEMERIS_TYPE":0,"CLASSIFICATION_TYPE":"U","NORAD_CAT_ID":64900,"ELEMENT_SET_NO":999,"REV_AT_EPOCH":3358,"BSTAR":0.00015134,"MEAN_MOTION_DOT":3.21e-5,"MEAN_MOTION_DDOT":0},{"OBJECT_NAME":"CO3D 4","OBJECT_ID":"2025-156C","EPOCH":"2026-03-02T06:59:52.721952","MEAN_MOTION":15.20203154,"ECCENTRICITY":2.545e-5,"INCLINATION":97.4334,"RA_OF_ASC_NODE":141.5187,"ARG_OF_PERICENTER":280.3117,"MEAN_ANOMALY":79.8089,"EPHEMERIS_TYPE":0,"CLASSIFICATION_TYPE":"U","NORAD_CAT_ID":64901,"ELEMENT_SET_NO":999,"REV_AT_EPOCH":3329,"BSTAR":6.0250155e-5,"MEAN_MOTION_DOT":1.237e-5,"MEAN_MOTION_DDOT":0},{"OBJECT_NAME":"CO3D 2","OBJECT_ID":"2025-156D","EPOCH":"2026-03-04T04:00:37.372608","MEAN_MOTION":15.20211208,"ECCENTRICITY":0.0001336,"INCLINATION":97.4333,"RA_OF_ASC_NODE":143.2665,"ARG_OF_PERICENTER":134.2524,"MEAN_ANOMALY":225.8821,"EPHEMERIS_TYPE":0,"CLASSIFICATION_TYPE":"U","NORAD_CAT_ID":64902,"ELEMENT_SET_NO":999,"REV_AT_EPOCH":3357,"BSTAR":0.0003863,"MEAN_MOTION_DOT":8.307e-5,"MEAN_MOTION_DDOT":0},{"OBJECT_NAME":"CO3D 1","OBJECT_ID":"2025-156E","EPOCH":"2026-03-04T04:00:50.628960","MEAN_MOTION":15.20201629,"ECCENTRICITY":0.0001185,"INCLINATION":97.4332,"RA_OF_ASC_NODE":143.2664,"ARG_OF_PERICENTER":140.9688,"MEAN_ANOMALY":219.1633,"EPHEMERIS_TYPE":0,"CLASSIFICATION_TYPE":"U","NORAD_CAT_ID":64903,"ELEMENT_SET_NO":999,"REV_AT_EPOCH":3357,"BSTAR":0.00026792,"MEAN_MOTION_DOT":5.737e-5,"MEAN_MOTION_DDOT":0},{"OBJECT_NAME":"SENTINEL-6B","OBJECT_ID":"2025-264A","EPOCH":"2026-03-04T03:38:35.017152","MEAN_MOTION":12.80929326,"ECCENTRICITY":0.0008001,"INCLINATION":66.0446,"RA_OF_ASC_NODE":353.3391,"ARG_OF_PERICENTER":270.6931,"MEAN_ANOMALY":89.3167,"EPHEMERIS_TYPE":0,"CLASSIFICATION_TYPE":"U","NORAD_CAT_ID":66514,"ELEMENT_SET_NO":999,"REV_AT_EPOCH":1371,"BSTAR":3.0022e-5,"MEAN_MOTION_DOT":-5.4e-7,"MEAN_MOTION_DDOT":0},{"OBJECT_NAME":"CSG-3","OBJECT_ID":"2026-001A","EPOCH":"2026-03-04T05:16:59.971584","MEAN_MOTION":14.82166109,"ECCENTRICITY":0.0001353,"INCLINATION":97.8862,"RA_OF_ASC_NODE":248.3369,"ARG_OF_PERICENTER":89.1637,"MEAN_ANOMALY":270.9732,"EPHEMERIS_TYPE":0,"CLASSIFICATION_TYPE":"U","NORAD_CAT_ID":67304,"ELEMENT_SET_NO":999,"REV_AT_EPOCH":891,"BSTAR":9.1703e-5,"MEAN_MOTION_DOT":6.78e-6,"MEAN_MOTION_DDOT":0}]
